{
  "norad_id": 54658,
  "name": "ONEWEB-0592",
  "history": [
    {
      "epoch": "2026-03-28T22:08:39.291072",
      "apogee_km": 1179.0082178891498,
      "perigee_km": 1176.4996620970715,
      "latitude_deg": 73.12337937669083,
      "longitude_deg": 94.37699007987976,
      "semi_major_axis_km": 7555.89093999311,
      "eccentricity": 0.000166,
      "inclination_deg": 87.918,
      "raan_deg": 259.9545,
      "arg_perigee_deg": 95.3977,
      "mean_anomaly_deg": 264.7346,
      "mean_motion_rev_day": 13.2182585
    }
  ]
}